[{"OBJECT_NAME":"ONEWEB-0701","OBJECT_ID":"2024-188P","EPOCH":"2025-10-01T05:29:57.823872","MEAN_MOTION":13.10376092,"ECCENTRICITY":0.00019893,"INCLINATION":87.8744,"RA_OF_ASC_NODE":87.8914,"ARG_OF_PERICENTER":115.3492,"MEAN_ANOMALY":244.7842,"EPHEMERIS_TYPE":0,"CLASSIFICATION_TYPE":"U","NORAD_CAT_ID":61607,"ELEMENT_SET_NO":999,"REV_AT_EPOCH":4939,"BSTAR":0.00064939488,"MEAN_MOTION_DOT":2.39e-6,"MEAN_MOTION_DDOT":0},{"OBJECT_NAME":"ONEWEB-0702","OBJECT_ID":"2024-188Q","EPOCH":"2025-09-30T23:48:29.498112","MEAN_MOTION":13.11414871,"ECCENTRICITY":0.00023062,"INCLINATION":87.8731,"RA_OF_ASC_NODE":72.6372,"ARG_OF_PERICENTER":114.2685,"MEAN_ANOMALY":245.8684,"EPHEMERIS_TYPE":0,"CLASSIFICATION_TYPE":"U","NORAD_CAT_ID":61608,"ELEMENT_SET_NO":999,"REV_AT_EPOCH":5051,"BSTAR":8.787542e-5,"MEAN_MOTION_DOT":4.4e-7,"MEAN_MOTION_DDOT":0},{"OBJECT_NAME":"ONEWEB-0704","OBJECT_ID":"2024-188R","EPOCH":"2025-09-30T18:13:29.321760","MEAN_MOTION":13.10376603,"ECCENTRICITY":0.00023631,"INCLINATION":87.8764,"RA_OF_ASC_NODE":87.9401,"ARG_OF_PERICENTER":109.9976,"MEAN_ANOMALY":250.1406,"EPHEMERIS_TYPE":0,"CLASSIFICATION_TYPE":"U","NORAD_CAT_ID":61609,"ELEMENT_SET_NO":999,"REV_AT_EPOCH":4931,"BSTAR":-0.00062027286,"MEAN_MOTION_DOT":-2.04e-6,"MEAN_MOTION_DDOT":0},{"OBJECT_NAME":"ONEWEB-0705","OBJECT_ID":"2024-188S","EPOCH":"2025-09-30T23:50:32.866080","MEAN_MOTION":13.10368596,"ECCENTRICITY":0.00031622,"INCLINATION":87.8753,"RA_OF_ASC_NODE":87.9247,"ARG_OF_PERICENTER":88.3344,"MEAN_ANOMALY":271.8145,"EPHEMERIS_TYPE":0,"CLASSIFICATION_TYPE":"U","NORAD_CAT_ID":61610,"ELEMENT_SET_NO":999,"REV_AT_EPOCH":4151,"BSTAR":-0.00063934618,"MEAN_MOTION_DOT":-2.1e-6,"MEAN_MOTION_DDOT":0},{"OBJECT_NAME":"ONEWEB-0706","OBJECT_ID":"2024-188T","EPOCH":"2025-10-01T01:18:57.738816","MEAN_MOTION":13.10374023,"ECCENTRICITY":0.00022685,"INCLINATION":87.874,"RA_OF_ASC_NODE":87.9385,"ARG_OF_PERICENTER":99.9671,"MEAN_ANOMALY":260.1713,"EPHEMERIS_TYPE":0,"CLASSIFICATION_TYPE":"U","NORAD_CAT_ID":61611,"ELEMENT_SET_NO":999,"REV_AT_EPOCH":4944,"BSTAR":-0.001831181,"MEAN_MOTION_DOT":-6.27e-6,"MEAN_MOTION_DDOT":0},{"OBJECT_NAME":"ONEWEB-0707","OBJECT_ID":"2024-188U","EPOCH":"2025-09-30T23:38:35.004768","MEAN_MOTION":13.1037674,"ECCENTRICITY":0.00021609,"INCLINATION":87.8755,"RA_OF_ASC_NODE":87.9199,"ARG_OF_PERICENTER":102.1969,"MEAN_ANOMALY":257.94,"EPHEMERIS_TYPE":0,"CLASSIFICATION_TYPE":"U","NORAD_CAT_ID":61612,"ELEMENT_SET_NO":999,"REV_AT_EPOCH":4937,"BSTAR":-0.0009810755,"MEAN_MOTION_DOT":-3.3e-6,"MEAN_MOTION_DDOT":0},{"OBJECT_NAME":"ONEWEB-0708","OBJECT_ID":"2024-188V","EPOCH":"2025-10-01T05:34:44.950080","MEAN_MOTION":13.10376066,"ECCENTRICITY":0.00024558,"INCLINATION":87.8754,"RA_OF_ASC_NODE":87.9128,"ARG_OF_PERICENTER":92.5054,"MEAN_ANOMALY":267.6355,"EPHEMERIS_TYPE":0,"CLASSIFICATION_TYPE":"U","NORAD_CAT_ID":61613,"ELEMENT_SET_NO":999,"REV_AT_EPOCH":4938,"BSTAR":0.00093545832,"MEAN_MOTION_DOT":3.39e-6,"MEAN_MOTION_DDOT":0}]
